GLOBALSTAR M004         
1 25163U 98008B   25040.37455175 -.00000077  00000+0  14979-3 0  9997
2 25163  51.9999  84.0753 0002842  15.3171 357.7788 12.63387540245535
GLOBALSTAR M002         
1 25164U 98008C   25040.62816354 -.00000066  00000+0  21041-3 0  9992
2 25164  51.9987 200.0359 0000279 234.3285 125.7509 11.61508124169243
GLOBALSTAR M003         
1 25165U 98008D   25040.63764894 -.00000007  00000+0  88249-3 0  9993
2 25165  51.9983 161.7739 0008186  41.2661  60.1843 12.12070509217754
GLOBALSTAR M014         
1 25306U 98023A   25040.25014785 -.00000079  00000+0 -25074-4 0  9990
2 25306  51.9832 126.8995 0001728 125.6818 298.1801 11.65478115176254
GLOBALSTAR M006         
1 25307U 98023B   25040.57513588 -.00000086  00000+0 -21149-3 0  9997
2 25307  51.9921 173.7802 0003034 218.6640 225.1107 11.58172420202048
GLOBALSTAR M015         
1 25308U 98023C   25040.58069208 -.00000043  00000+0  69040-3 0  9998
2 25308  51.9801 266.3937 0012035 205.3437 191.3538 11.48857827179418
GLOBALSTAR M008         
1 25309U 98023D   25040.63533818 -.00000072  00000+0  19310-3 0  9995
2 25309  51.9943 207.8585 0001551 260.9866 178.4688 12.36062550222071
